      2.10          N: GNSS NAV DATA                        RINEX VERSION / TYPE
fic2rin                                 04/23/2021 00:17:16 PGM / RUN BY / DATE
                                                            END OF HEADER
17 21  4 22 14  0  0.0 4.305550828576e-04 6.252776074689e-12 0.000000000000e+00
    8.000000000000e+00 3.418750000000e+01 3.931592338030e-09-1.168221658607e-01
    1.834705471992e-06 1.334495295305e-02 9.769573807716e-06 5.153586185455e+03
    3.960000000000e+05-2.160668373108e-07 2.474575193384e+00 5.587935447693e-08
    9.824419671314e-01 2.079375000000e+02-1.569362150667e+00-7.968903365383e-09
   -1.921508609975e-10 1.000000000000e+00 2.154000000000e+03 0.000000000000e+00
    2.400000000000e+00 0.000000000000e+00-1.117587089539e-08 8.000000000000e+00
    3.888000000000e+05 4.000000000000e+00
12 21  4 22 14  0  0.0-3.121746703982e-05-5.115907697473e-12 0.000000000000e+00
    2.600000000000e+01-8.250000000000e+00 4.462685888780e-09 2.656594752372e+00
   -5.792826414108e-07 8.483395911753e-03 6.392598152161e-06 5.153752830505e+03
    3.960000000000e+05 2.235174179077e-08 1.438357438755e+00-1.676380634308e-07
    9.737797936542e-01 2.572187500000e+02 1.204450776564e+00-7.919972755798e-09
   -5.393081786361e-10 1.000000000000e+00 2.154000000000e+03 0.000000000000e+00
    2.400000000000e+00 0.000000000000e+00-1.257285475731e-08 2.600000000000e+01
    3.888000000000e+05 4.000000000000e+00
 7 21  4 22 14  0  0.0 1.296889968216e-04 1.136868377216e-11 0.000000000000e+00
    1.800000000000e+01 5.196875000000e+01 4.989493546719e-09-2.865398879936e+00
    2.454966306686e-06 1.479883317370e-02 7.342547178268e-06 5.153584676743e+03
    3.960000000000e+05 8.381903171539e-08 3.280245808433e-01-2.924352884293e-07
    9.521639048314e-01 2.346250000000e+02-2.338956955723e+00-8.071764792831e-09
    3.553719455251e-10 1.000000000000e+00 2.154000000000e+03 0.000000000000e+00
    2.400000000000e+00 0.000000000000e+00-1.117587089539e-08 1.800000000000e+01
    3.888000000000e+05 4.000000000000e+00
 5 21  4 22 14  0  0.0-3.981450572610e-05-1.136868377216e-12 0.000000000000e+00
    4.200000000000e+01-8.112500000000e+01 4.723411034743e-09 4.606631645156e-01
   -4.081055521965e-06 6.040004431270e-03 4.779547452927e-06 5.153859561920e+03
    3.960000000000e+05-1.061707735062e-07-1.810855225137e+00 1.210719347000e-07
    9.555770433909e-01 2.845625000000e+02 8.815346208039e-01-8.438565785851e-09
   -1.417916204758e-10 1.000000000000e+00 2.154000000000e+03 0.000000000000e+00
    2.400000000000e+00 0.000000000000e+00-1.117587089539e-08 4.200000000000e+01
    3.888000000000e+05 4.000000000000e+00
 9 21  4 22 14  0  0.0-3.406973555684e-04-2.614797267597e-12 0.000000000000e+00
    8.800000000000e+01-3.500000000000e+01 4.539831959366e-09 3.688526334041e-01
   -1.987442374229e-06 1.887032995000e-03 1.086294651031e-05 5.153802423477e+03
    3.960000000000e+05-1.862645149231e-08-7.442580089677e-01-2.980232238770e-08
    9.533115231029e-01 1.626562500000e+02 1.832266059659e+00-8.010690820284e-09
    1.496490906282e-10 1.000000000000e+00 2.154000000000e+03 0.000000000000e+00
    2.400000000000e+00 0.000000000000e+00 1.396983861923e-09 8.800000000000e+01
    3.888000000000e+05 4.000000000000e+00
 8 21  4 22 14  0  0.0-1.843553036451e-05-1.364242052659e-12 0.000000000000e+00
    9.900000000000e+01 2.131250000000e+01 4.165887811663e-09-6.550531690224e-02
    9.927898645401e-07 6.347248214297e-03 9.506940841675e-06 5.153590688705e+03
    3.960000000000e+05 9.685754776001e-08 2.397130276429e+00 1.117587089539e-08
    9.676533341197e-01 2.001875000000e+02 3.377772222343e-02-7.978903781941e-09
   -3.017982853957e-10 1.000000000000e+00 2.154000000000e+03 0.000000000000e+00
    2.400000000000e+00 0.000000000000e+00 5.122274160385e-09 9.900000000000e+01
    3.888000000000e+05 4.000000000000e+00
 6 21  4 22 14  0  0.0 9.247567504644e-06 3.069544618484e-12 0.000000000000e+00
    8.300000000000e+01 4.731250000000e+01 4.070169538899e-09-2.046999283017e+00
    2.462416887283e-06 2.281830180436e-03 4.978850483894e-06 5.153749298096e+03
    3.960000000000e+05 4.656612873077e-08-2.820543073043e+00 1.862645149231e-08
    9.836910343829e-01 2.982812500000e+02-9.889249178580e-01-8.077122158844e-09
    2.567964108870e-10 1.000000000000e+00 2.154000000000e+03 0.000000000000e+00
    2.400000000000e+00 0.000000000000e+00 3.725290298462e-09 8.300000000000e+01
    3.888000000000e+05 4.000000000000e+00
13 21  4 22 14  0  0.0 1.230305060744e-04 4.661160346586e-12 0.000000000000e+00
    7.000000000000e+01-2.865625000000e+01 4.255891560681e-09-6.851485187059e-01
   -1.369044184685e-06 4.926207475364e-03 1.204572618008e-05 5.153684419632e+03
    3.960000000000e+05-7.450580596924e-09-5.961896772131e-01 1.117587089539e-07
    9.682480585952e-01 1.529062500000e+02 9.852061669342e-01-7.862470360593e-09
    2.603679882289e-10 1.000000000000e+00 2.154000000000e+03 0.000000000000e+00
    2.400000000000e+00 0.000000000000e+00-1.117587089539e-08 7.000000000000e+01
    3.888000000000e+05 4.000000000000e+00
29 21  4 22 14  0  0.0-3.344505093992e-04-6.593836587854e-12 0.000000000000e+00
    4.900000000000e+01 4.000000000000e+01 3.691225182917e-09 6.497844549307e-02
    2.017244696617e-06 1.753984834068e-03 1.115538179874e-05 5.153658508301e+03
    3.960000000000e+05-1.862645149231e-08 2.486966305546e+00-4.842877388000e-08
    9.842930310242e-01 1.770000000000e+02 2.115068928539e+00-7.677105496545e-09
   -2.128660095809e-10 1.000000000000e+00 2.154000000000e+03 0.000000000000e+00
    2.400000000000e+00 0.000000000000e+00-9.778887033463e-09 4.900000000000e+01
    3.888000000000e+05 4.000000000000e+00
31 21  4 22 14  0  0.0-1.130695454776e-04-2.160049916711e-12 0.000000000000e+00
    3.100000000000e+01 5.153125000000e+01 4.915204738007e-09 2.853611332663e+00
    2.672895789146e-06 9.938937029801e-03 7.551163434982e-06 5.153769554138e+03
    3.960000000000e+05-1.788139343262e-07 3.449313041848e-01-8.195638656616e-08
    9.564803192331e-01 2.326562500000e+02 2.580044939399e-01-8.010333662550e-09
    3.703725703613e-10 1.000000000000e+00 2.154000000000e+03 0.000000000000e+00
    2.400000000000e+00 0.000000000000e+00-1.303851604462e-08 3.100000000000e+01
    3.888000000000e+05 4.000000000000e+00
27 21  4 22 14  0  0.0-1.172744669020e-04-6.707523425575e-12 0.000000000000e+00
    3.300000000000e+01 2.068750000000e+01 4.089813214279e-09-1.226158188467e-01
    1.125037670135e-06 9.393924497999e-03 9.866431355476e-06 5.153682533264e+03
    3.960000000000e+05 4.842877388000e-08 2.414091339863e+00 1.005828380585e-07
    9.762319515679e-01 1.945000000000e+02 6.097712887017e-01-7.972832100459e-09
   -2.803688213439e-10 1.000000000000e+00 2.154000000000e+03 0.000000000000e+00
    2.400000000000e+00 0.000000000000e+00 1.862645149231e-09 3.300000000000e+01
    3.888000000000e+05 4.000000000000e+00
16 21  4 22 14  0  0.0-3.136717714369e-04-5.911715561524e-12 0.000000000000e+00
    6.700000000000e+01-1.503125000000e+01 4.611977821674e-09 8.137790491638e-01
   -4.433095455170e-07 1.224915543571e-02 6.560236215591e-06 5.153677873611e+03
    3.960000000000e+05-1.005828380585e-07 1.457128357142e+00 1.154839992523e-07
    9.738654723774e-01 2.604062500000e+02 6.749036492688e-01-8.236771666030e-09
   -5.707380592453e-10 1.000000000000e+00 2.154000000000e+03 0.000000000000e+00
    2.400000000000e+00 0.000000000000e+00-1.024454832077e-08 6.700000000000e+01
    3.888000000000e+05 4.000000000000e+00
30 21  4 22 14  0  0.0-4.163170233369e-04-5.115907697473e-12 0.000000000000e+00
    5.400000000000e+01 5.037500000000e+01 5.423083036033e-09-3.015307040373e+00
    2.667307853699e-06 5.108893732540e-03 7.200986146927e-06 5.153713548660e+03
    3.960000000000e+05-5.774199962616e-08 3.457098443169e-01-8.940696716309e-08
    9.373760647213e-01 2.327187500000e+02-2.804651440762e+00-8.387849387595e-09
    3.317995350682e-10 1.000000000000e+00 2.154000000000e+03 0.000000000000e+00
    2.400000000000e+00 0.000000000000e+00 3.725290298462e-09 5.400000000000e+01
    3.888000000000e+05 4.000000000000e+00
22 21  4 22 14  0  0.0-6.319531239569e-04 8.981260180008e-12 0.000000000000e+00
    4.000000000000e+01-6.406250000000e+01 5.186644615996e-09-1.087765061461e+00
   -3.309920430183e-06 7.074398803525e-03 4.446133971214e-06 5.153555828094e+03
    3.960000000000e+05-1.285225152969e-07-1.872743387851e+00 1.676380634308e-08
    9.341607858321e-01 2.815312500000e+02-9.898427746047e-01-8.651788953166e-09
    5.964534161075e-11 1.000000000000e+00 2.154000000000e+03 0.000000000000e+00
    2.400000000000e+00 0.000000000000e+00-1.769512891769e-08 4.000000000000e+01
    3.888000000000e+05 4.000000000000e+00
32 21  4 22 14  0  0.0 2.202950417995e-05-2.273736754432e-13 0.000000000000e+00
    4.900000000000e+01-4.643750000000e+01 4.499473135402e-09 6.212787471421e-01
   -2.518296241760e-06 4.869398544542e-03 1.087784767151e-05 5.153665254593e+03
    3.960000000000e+05-3.539025783539e-08-7.343747041227e-01 6.519258022308e-08
    9.573070639789e-01 1.699375000000e+02-2.383414603128e+00-7.958545791091e-09
    1.114332130692e-10 1.000000000000e+00 2.154000000000e+03 0.000000000000e+00
    2.400000000000e+00 0.000000000000e+00 4.656612873077e-10 4.900000000000e+01
    3.888000000000e+05 4.000000000000e+00
21 21  4 22 14  0  0.0 1.128744333982e-04 2.842170943040e-12 0.000000000000e+00
    3.100000000000e+01 3.993750000000e+01 4.620192449561e-09 7.110080885694e-02
    2.101063728333e-06 2.415717567783e-02 6.008893251419e-06 5.153694995880e+03
    3.960000000000e+05-2.365559339523e-07-2.895051492092e+00-3.688037395477e-07
    9.570819720886e-01 2.690312500000e+02-1.150613960513e+00-8.643217167545e-09
    1.600066649198e-10 1.000000000000e+00 2.154000000000e+03 0.000000000000e+00
    2.400000000000e+00 0.000000000000e+00-1.024454832077e-08 3.100000000000e+01
    3.888000000000e+05 4.000000000000e+00
